[{"OBJECT_NAME":"STARLINK-31357","OBJECT_ID":"2024-071U","EPOCH":"2026-03-08T11:03:35.968608","MEAN_MOTION":15.27591756,"ECCENTRICITY":0.00010138,"INCLINATION":43.0025,"RA_OF_ASC_NODE":347.0335,"ARG_OF_PERICENTER":264.2594,"MEAN_ANOMALY":95.8142,"EPHEMERIS_TYPE":0,"CLASSIFICATION_TYPE":"U","NORAD_CAT_ID":59502,"ELEMENT_SET_NO":999,"REV_AT_EPOCH":10801,"BSTAR":7.1267032e-5,"MEAN_MOTION_DOT":1.7e-5,"MEAN_MOTION_DDOT":0},{"OBJECT_NAME":"FLOCK 4G-3","OBJECT_ID":"2025-009AG","EPOCH":"2026-03-09T19:14:30.392160","MEAN_MOTION":15.2717931,"ECCENTRICITY":0.00013196,"INCLINATION":97.4062,"RA_OF_ASC_NODE":151.4068,"ARG_OF_PERICENTER":293.2042,"MEAN_ANOMALY":66.9058,"EPHEMERIS_TYPE":0,"CLASSIFICATION_TYPE":"U","NORAD_CAT_ID":62639,"ELEMENT_SET_NO":999,"REV_AT_EPOCH":6372,"BSTAR":0.0004338875,"MEAN_MOTION_DOT":0.00011494,"MEAN_MOTION_DDOT":0}]
